39731,KAZEOSAT 1,2014,99.86,830.0,+,98.43,Active,1,LEO,French Guiana,Kazakhstan,Government,Earth Observation,Vega,1 39731U 14024A   23202.74860859  .00000308  00000+0  10710-3 0  9992,2 39731  98.4285 279.0343 0001316  97.8166 262.3173 14.42030284485624,14.42030284,0.0001316,LEO
40010,KAZEOSAT 2,2014,97.16,185.0,+,97.67,Active,1,LEO,Russia,Kazakhstan,Government,Earth Observation,Dnepr,1 40010U 14033A   23202.78829928  .00000678  00000+0  91567-4 0  9990,2 40010  97.6685  77.6705 0011995 205.9284 154.1330 14.82075490491589,14.8207549,0.0011995,LEO
43783,KAZSTSAT,2018,96.32,100.0,+,97.58,Active,1,LEO,USA,Kazakhstan,Commercial,Earth Observation,Falcon,1 43783U 18099AB  23202.63234686  .00001625  00000+0  15331-3 0  9998,2 43783  97.5779 260.5330 0008110  25.6645 334.4977 14.95083821252421,14.95083821,0.000811,LEO
