[{"NORAD_CAT_ID":39731,"RA_OF_ASC_NODE":279.0343,"MEAN_ANOMALY":262.3173,"ELEMENT_SET_NO":999,"OBJECT_ID":"2014-024A","MEAN_MOTION_DOT":3.08E-6,"ARG_OF_PERICENTER":97.8166,"EPHEMERIS_TYPE":0,"MEAN_MOTION":14.42030284,"ECCENTRICITY":1.316E-4,"INCLINATION":98.4285,"CLASSIFICATION_TYPE":"U","OBJECT_NAME":"KAZEOSAT 1","EPOCH":"2023-07-21T17:57:59.782176","REV_AT_EPOCH":48562,"BSTAR":1.071E-4,"MEAN_MOTION_DDOT":0},{"NORAD_CAT_ID":40010,"RA_OF_ASC_NODE":77.6705,"MEAN_ANOMALY":154.133,"ELEMENT_SET_NO":999,"OBJECT_ID":"2014-033A","MEAN_MOTION_DOT":6.78E-6,"ARG_OF_PERICENTER":205.9284,"EPHEMERIS_TYPE":0,"MEAN_MOTION":14.8207549,"ECCENTRICITY":0.0011995,"INCLINATION":97.6685,"CLASSIFICATION_TYPE":"U","OBJECT_NAME":"KAZEOSAT 2","EPOCH":"2023-07-21T18:55:09.057792","REV_AT_EPOCH":49158,"BSTAR":9.1567E-5,"MEAN_MOTION_DDOT":0},{"NORAD_CAT_ID":43783,"RA_OF_ASC_NODE":260.533,"MEAN_ANOMALY":334.4977,"ELEMENT_SET_NO":999,"OBJECT_ID":"2018-099AB","MEAN_MOTION_DOT":1.625E-5,"ARG_OF_PERICENTER":25.6645,"EPHEMERIS_TYPE":0,"MEAN_MOTION":14.95083821,"ECCENTRICITY":8.11E-4,"INCLINATION":97.5779,"CLASSIFICATION_TYPE":"U","OBJECT_NAME":"KAZSTSAT","EPOCH":"2023-07-21T15:10:34.768704","REV_AT_EPOCH":25242,"BSTAR":1.5331E-4,"MEAN_MOTION_DDOT":0}]